NORAD_CAT_ID,OBJECT_NAME,OBJECT_TYPE,EPOCH,MEAN_MOTION,ECCENTRICITY,INCLINATION,RA_OF_ASC_NODE,ARG_OF_PERICENTER,MEAN_ANOMALY,BSTAR,MEAN_MOTION_DOT,MEAN_MOTION_DDOT,TLE_LINE0,TLE_LINE1,TLE_LINE2,SEMIMAJOR_AXIS,PERIOD,APOGEE,PERIGEE,DECAYED
51734.0,STARLINK-3450,PAYLOAD,2023-02-16 09:08:24,15.08892244,8.66e-05,53.215,294.9217,108.5846,251.5241,0.00056169,8.675e-05,0.0,0 STARLINK-3450,1 51734U 22016W   23047.38083713  .00008675  00000-0  56169-3 0  9996,2 51734  53.2150 294.9217 0000866 108.5846 251.5241 15.08892244 55995,6917.721,95.434,540.185,538.987,0.0
51734.0,STARLINK-3450,PAYLOAD,2023-02-16 21:51:29,15.08873551,0.0001212,53.2142,292.5424,118.8683,241.2431,0.0020365,0.00032302,0.0,0 STARLINK-3450,1 51734U 22016W   23047.91075529  .00032302  00000-0  20365-2 0  9993,2 51734  53.2142 292.5424 0001212 118.8683 241.2431 15.08873551 54962,6917.778,95.435,540.481,538.804,0.0
51734.0,STARLINK-3450,PAYLOAD,2023-02-16 23:26:52,15.08875135,0.0001251,53.214,292.2452,122.1771,237.9343,0.0030105,0.00047997,0.0,0 STARLINK-3450,1 51734U 22016W   23047.97699532  .00047997  00000-0  30105-2 0  9994,2 51734  53.2140 292.2452 0001251 122.1771 237.9343 15.08875135 56086,6917.773,95.435,540.503,538.773,0.0
51734.0,STARLINK-3450,PAYLOAD,2023-02-17 08:59:11,15.08842859,0.0003162,53.2136,290.4596,76.3187,283.8157,0.0013078,0.0002059,0.0,0 STARLINK-3450,1 51734U 22016W   23048.37444251  .00020590  00000-0  13078-2 0  9995,2 51734  53.2136 290.4596 0003162  76.3187 283.8157 15.08842859 56141,6917.872,95.437,541.924,537.549,0.0
51734.0,STARLINK-3450,PAYLOAD,2023-02-17 18:31:30,15.08820499,0.0001022,53.2137,288.6764,101.2621,258.8486,0.00059356,9.166e-05,0.0,0 STARLINK-3450,1 51734U 22016W   23048.77188397  .00009166  00000-0  59356-3 0  9991,2 51734  53.2137 288.6764 0001022 101.2621 258.8486 15.08820499 56202,6917.94,95.439,540.512,539.098,0.0
51734.0,STARLINK-3450,PAYLOAD,2023-02-17 20:06:53,15.08820719,9.95e-05,53.2141,288.379,103.8449,256.2653,0.00055608,8.569e-05,0.0,0 STARLINK-3450,1 51734U 22016W   23048.83812319  .00008569  00000-0  55608-3 0  9998,2 51734  53.2141 288.3790 0000995 103.8449 256.2653 15.08820719 55108,6917.939,95.439,540.493,539.116,0.0
51734.0,STARLINK-3450,PAYLOAD,2023-02-17 23:17:40,15.08821725,0.0001038,53.2141,287.7842,98.0098,262.1012,0.0011245,0.00017645,0.0,0 STARLINK-3450,1 51734U 22016W   23048.97060638  .00017645  00000-0  11245-2 0  9995,2 51734  53.2141 287.7842 0001038  98.0098 262.1012 15.08821725 55128,6917.936,95.439,540.519,539.083,0.0
51734.0,STARLINK-3450,PAYLOAD,2023-02-18 19:57:41,15.08854457,0.0001078,53.2135,283.9186,93.5534,266.5582,0.0015554,0.00024563,0.0,0 STARLINK-3450,1 51734U 22016W   23049.83173051  .00024563  00000-0  15554-2 0  9999,2 51734  53.2135 283.9186 0001078  93.5534 266.5582 15.08854457 56364,6917.836,95.437,540.447,538.955,0.0
51734.0,STARLINK-3450,PAYLOAD,2023-02-19 08:40:46,15.08855216,0.0001239,53.2135,281.5397,80.9586,279.1546,0.0011039,0.00017332,0.0,0 STARLINK-3450,1 51734U 22016W   23050.36164922  .00017332  00000-0  11039-2 0  9996,2 51734  53.2135 281.5397 0001239  80.9586 279.1546 15.08855216 55338,6917.834,95.437,540.556,538.842,0.0
51734.0,STARLINK-3450,PAYLOAD,2023-02-19 15:02:19,15.08849609,0.0001676,53.212,280.355,68.4655,291.6515,0.00048467,7.436e-05,0.0,0 STARLINK-3450,1 51734U 22016W   23050.62661052  .00007436  00000-0  48467-3 0  9991,2 51734  53.2120 280.3550 0001676  68.4655 291.6515 15.08849609 56484,6917.851,95.437,540.875,538.557,0.0
51734.0,STARLINK-3450,PAYLOAD,2023-02-20 08:31:33,15.08847987,0.0001236,53.213,277.0789,80.546,279.5672,0.00031833,4.783e-05,0.0,0 STARLINK-3450,1 51734U 22016W   23051.35524640  .00004783  00000-0  31833-3 0  9994,2 51734  53.2130 277.0789 0001236  80.5460 279.5672 15.08847987 56591,6917.856,95.437,540.576,538.866,0.0
51734.0,STARLINK-3450,PAYLOAD,2023-02-21 14:43:52,15.08847643,0.0001406,53.2118,271.4281,83.8275,276.2878,0.00015319,2.151e-05,0.0,0 STARLINK-3450,1 51734U 22016W   23052.61380313  .00002151  00000-0  15319-3 0  9999,2 51734  53.2118 271.4281 0001406  83.8275 276.2878 15.08847643 56783,6917.857,95.437,540.695,538.749,0.0
51734.0,STARLINK-3450,PAYLOAD,2023-02-21 21:05:24,15.08850784,0.0001197,53.2132,270.239,86.7146,273.3983,0.00019399,2.802e-05,0.0,0 STARLINK-3450,1 51734U 22016W   23052.87876087  .00002802  00000-0  19399-3 0  9990,2 51734  53.2132 270.2390 0001197  86.7146 273.3983 15.08850784 55710,6917.847,95.437,540.54,538.884,0.0
51734.0,STARLINK-3450,PAYLOAD,2023-02-22 14:34:40,15.08835944,0.0001077,53.2129,266.9663,88.4371,271.6745,1.1995e-05,-9.7e-07,0.0,0 STARLINK-3450,1 51734U 22016W   23053.60740754 -.00000097  00000-0  11995-4 0  9993,2 51734  53.2129 266.9663 0001077  88.4371 271.6745 15.08835944 55827,6917.893,95.438,540.503,539.013,0.0
51734.0,STARLINK-3450,PAYLOAD,2023-02-22 20:56:12,15.0883533,0.0001098,53.2131,265.7773,79.5963,280.5153,-1.5555e-05,-5.35e-06,0.0,0 STARLINK-3450,1 51734U 22016W   23053.87236883 -.00000535  00000-0 -15555-4 0  9999,2 51734  53.2131 265.7773 0001098  79.5963 280.5153 15.08835330 55865,6917.895,95.438,540.519,539.0,0.0
51734.0,STARLINK-3450,PAYLOAD,2023-02-23 14:25:26,15.08844121,0.0001143,53.2132,262.5061,81.722,278.3901,0.00021697,3.167e-05,0.0,0 STARLINK-3450,1 51734U 22016W   23054.60100600  .00003167  00000-0  21697-3 0  9993,2 51734  53.2132 262.5061 0001143  81.7220 278.3901 15.08844121 55979,6917.868,95.437,540.524,538.942,0.0
51734.0,STARLINK-3450,PAYLOAD,2023-02-23 20:46:59,15.08852812,0.0001127,53.2132,261.3165,79.3848,280.7271,0.00046679,7.151e-05,0.0,0 STARLINK-3450,1 51734U 22016W   23054.86596361  .00007151  00000-0  46679-3 0  9998,2 51734  53.2132 261.3165 0001127  79.3848 280.7271 15.08852812 56011,6917.841,95.437,540.486,538.927,0.0
51734.0,STARLINK-3450,PAYLOAD,2023-02-23 23:57:45,15.08859121,0.0001167,53.2131,260.7216,80.8921,279.2203,0.00075594,0.0001177,0.0,0 STARLINK-3450,1 51734U 22016W   23054.99844296  .00011770  00000-0  75594-3 0  9995,2 51734  53.2131 260.7216 0001167  80.8921 279.2203 15.08859121 57146,6917.822,95.436,540.494,538.88,0.0
51734.0,STARLINK-3450,PAYLOAD,2023-02-24 14:16:13,15.08842908,0.0001024,53.2132,258.0448,82.2392,277.8716,8.3363e-05,1.039e-05,0.0,0 STARLINK-3450,1 51734U 22016W   23055.59460513  .00001039  00000-0  83363-4 0  9999,2 51734  53.2132 258.0448 0001024  82.2392 277.8716 15.08842908 56129,6917.872,95.437,540.445,539.028,0.0
51734.0,STARLINK-3450,PAYLOAD,2023-02-24 20:37:46,15.08841807,0.0001075,53.2132,256.8552,85.0948,275.0167,0.00011069,1.474e-05,0.0,0 STARLINK-3450,1 51734U 22016W   23055.85956482  .00001474  00000-0  11069-3 0  9999,2 51734  53.2132 256.8552 0001075  85.0948 275.0167 15.08841807 56166,6917.875,95.437,540.484,538.996,0.0
51734.0,STARLINK-3450,PAYLOAD,2023-02-25 06:10:05,15.08839083,0.0001271,53.213,255.0704,85.372,274.7417,6.177e-05,6.95e-06,0.0,0 STARLINK-3450,1 51734U 22016W   23056.25700657  .00000695  00000-0  61770-4 0  9994,2 51734  53.2130 255.0704 0001271  85.3720 274.7417 15.08839083 56227,6917.883,95.438,540.627,538.869,0.0
51734.0,STARLINK-3450,PAYLOAD,2023-02-25 17:17:47,15.08837941,0.0001062,53.2128,252.9886,87.4677,272.6437,0.00016631,2.36e-05,0.0,0 STARLINK-3450,1 51734U 22016W   23056.72068800  .00002360  00000-0  16631-3 0  9999,2 51734  53.2128 252.9886 0001062  87.4677 272.6437 15.08837941 57404,6917.887,95.438,540.486,539.017,0.0
51734.0,STARLINK-3450,PAYLOAD,2023-02-25 20:28:33,15.08841319,0.0001079,53.213,252.3939,85.7592,274.3523,0.0001635,2.315e-05,0.0,0 STARLINK-3450,1 51734U 22016W   23056.85316752  .00002315  00000-0  16350-3 0  9993,2 51734  53.2130 252.3939 0001079  85.7592 274.3523 15.08841319 56313,6917.876,95.437,540.488,538.995,0.0
51734.0,STARLINK-3450,PAYLOAD,2023-02-26 13:57:48,15.08844497,0.0001166,53.2129,249.1226,91.3229,268.7897,0.00028707,4.284e-05,0.0,0 STARLINK-3450,1 51734U 22016W   23057.58180794  .00004284  00000-0  28707-3 0  9995,2 51734  53.2129 249.1226 0001166  91.3229 268.7897 15.08844497 56424,6917.867,95.437,540.538,538.925,0.0
51734.0,STARLINK-3450,PAYLOAD,2023-02-26 18:43:57,15.08850107,0.0001186,53.2129,248.2304,89.7291,270.3836,0.0003668,5.556e-05,0.0,0 STARLINK-3450,1 51734U 22016W   23057.78052565  .00005556  00000-0  36680-3 0  9993,2 51734  53.2129 248.2304 0001186  89.7291 270.3836 15.08850107 57566,6917.849,95.437,540.535,538.894,0.0
51734.0,STARLINK-3450,PAYLOAD,2023-02-27 05:51:39,15.08843298,0.0001288,53.2129,246.1485,78.5207,281.593,0.00020156,2.922e-05,0.0,0 STARLINK-3450,1 51734U 22016W   23058.24420888  .00002922  00000-0  20156-3 0  9997,2 51734  53.2129 246.1485 0001288  78.5207 281.5930 15.08843298 57639,6917.87,95.437,540.626,538.844,0.0
51734.0,STARLINK-3450,PAYLOAD,2023-02-27 12:13:12,15.0884503,0.0001428,53.2124,244.9592,78.35,281.7652,0.00023873,3.514e-05,0.0,0 STARLINK-3450,1 51734U 22016W   23058.50916913  .00003514  00000-0  23873-3 0  9992,2 51734  53.2124 244.9592 0001428  78.3500 281.7652 15.08845030 56569,6917.865,95.437,540.718,538.742,0.0
51734.0,STARLINK-3450,PAYLOAD,2023-02-27 21:45:30,15.08850928,0.0001224,53.2126,243.1745,78.3696,281.7433,0.00045962,7.037e-05,0.0,0 STARLINK-3450,1 51734U 22016W   23058.90660576  .00007037  00000-0  45962-3 0  9994,2 51734  53.2126 243.1745 0001224  78.3696 281.7433 15.08850928 56628,6917.847,95.437,540.559,538.865,0.0
51734.0,STARLINK-3450,PAYLOAD,2023-02-28 12:03:59,15.08836151,0.0001373,53.2124,240.4988,85.187,274.9279,5.8741e-05,6.47e-06,0.0,0 STARLINK-3450,1 51734U 22016W   23059.50277147  .00000647  00000-0  58741-4 0  9999,2 51734  53.2124 240.4988 0001373  85.1870 274.9279 15.08836151 56714,6917.892,95.438,540.707,538.807,0.0
51734.0,STARLINK-3450,PAYLOAD,2023-02-28 15:14:45,15.08833797,0.0001286,53.2129,239.9045,82.1308,277.983,2.8346e-05,1.63e-06,0.0,0 STARLINK-3450,1 51734U 22016W   23059.63525258  .00000163  00000-0  28346-4 0  9993,2 51734  53.2129 239.9045 0001286  82.1308 277.9830 15.08833797 57846,6917.899,95.438,540.654,538.875,0.0
